STARLINK-6196           
1 56487U 23064AR  26068.47184357  .00002863  00000+0  24761-3 0  9997
2 56487  70.0005 104.8614 0003641 271.9465  88.1277 14.98333961156200
HAWK-8C                 
1 59449U 24066H   26068.47383543  .00002400  00000+0  21518-3 0  9993
2 59449  45.6068  72.8656 0003935 260.2975  99.7462 14.98770227104860
